$$SOE
2460161.500000000, A.D. 2023-Aug-05 00:00:00.0000, 6.093977419700210E+09, 1.791566146396735E+09, 4.471273986283469E+07,
2460168.500000000, A.D. 2023-Aug-12 00:00:00.0000, 6.092974965541828E+09, 1.794187313132059E+09, 4.448910757998824E+07,
2460175.500000000, A.D. 2023-Aug-19 00:00:00.0000, 6.091971266465651E+09, 1.796808109209877E+09, 4.426546940291977E+07,
2460182.500000000, A.D. 2023-Aug-26 00:00:00.0000, 6.090966320852702E+09, 1.799428531246399E+09, 4.404182546850061E+07,
2460189.500000000, A.D. 2023-Sep-02 00:00:00.0000, 6.089960127367599E+09, 1.802048575477821E+09, 4.381817589091444E+07,
2460196.500000000, A.D. 2023-Sep-09 00:00:00.0000, 6.088952684949922E+09, 1.804668237666481E+09, 4.359452075171471E+07,
2460203.500000000, A.D. 2023-Sep-16 00:00:00.0000, 6.087943992987635E+09, 1.807287512836466E+09, 4.337086005839264E+07,
2460210.500000000, A.D. 2023-Sep-23 00:00:00.0000, 6.086934052088970E+09, 1.809906395125468E+09, 4.314719365676260E+07,
2460217.500000000, A.D. 2023-Sep-30 00:00:00.0000, 6.085922865113204E+09, 1.812524878943601E+09, 4.292352122571886E+07,
2460224.500000000, A.D. 2023-Oct-07 00:00:00.0000, 6.084910436106590E+09, 1.815142960896363E+09, 4.269984252602255E+07,
2460231.500000000, A.D. 2023-Oct-14 00:00:00.0000, 6.083896768183344E+09, 1.817760639158564E+09, 4.247615753714740E+07,
2460238.500000000, A.D. 2023-Oct-21 00:00:00.0000, 6.082881863580276E+09, 1.820377911901945E+09, 4.225246631720555E+07,
2460245.500000000, A.D. 2023-Oct-28 00:00:00.0000, 6.081865724460751E+09, 1.822994777036618E+09, 4.202876890154374E+07,
2460252.500000000, A.D. 2023-Nov-04 00:00:00.0000, 6.080848353217876E+09, 1.825611232495921E+09, 4.180506529194868E+07,
2460259.500000000, A.D. 2023-Nov-11 00:00:00.0000, 6.079829752454570E+09, 1.828227276464825E+09, 4.158135547142613E+07,
2460266.500000000, A.D. 2023-Nov-18 00:00:00.0000, 6.078809924859925E+09, 1.830842907487569E+09, 4.135763941941071E+07,
2460273.500000000, A.D. 2023-Nov-25 00:00:00.0000, 6.077788873054751E+09, 1.833458124477112E+09, 4.113391712279785E+07,
2460280.500000000, A.D. 2023-Dec-02 00:00:00.0000, 6.076766599434461E+09, 1.836072926615167E+09, 4.091018857947731E+07,
2460287.500000000, A.D. 2023-Dec-09 00:00:00.0000, 6.075743106087123E+09, 1.838687313083938E+09, 4.068645378252721E+07,
2460294.500000000, A.D. 2023-Dec-16 00:00:00.0000, 6.074718395074236E+09, 1.841301282642112E+09, 4.046271265975773E+07,
2460301.500000000, A.D. 2023-Dec-23 00:00:00.0000, 6.073692469422667E+09, 1.843914833732548E+09, 4.023896499278438E+07,
2460308.500000000, A.D. 2023-Dec-30 00:00:00.0000, 6.072665333487552E+09, 1.846527966170920E+09, 4.001521052418792E+07,
2460315.500000000, A.D. 2024-Jan-06 00:00:00.0000, 6.071636990913676E+09, 1.849140682054611E+09, 3.979144922224283E+07,
2460322.500000000, A.D. 2024-Jan-13 00:00:00.0000, 6.070607443368116E+09, 1.851752984084926E+09, 3.956768126431334E+07,
2460329.500000000, A.D. 2024-Jan-20 00:00:00.0000, 6.069576691267672E+09, 1.854364874387233E+09, 3.934390687851441E+07,
2460336.500000000, A.D. 2024-Jan-27 00:00:00.0000, 6.068544734472352E+09, 1.856976354481207E+09, 3.912012628277075E+07,
2460343.500000000, A.D. 2024-Feb-03 00:00:00.0000, 6.067511572516578E+09, 1.859587425452571E+09, 3.889633968280518E+07,
2460350.500000000, A.D. 2024-Feb-10 00:00:00.0000, 6.066477204655405E+09, 1.862198088035219E+09, 3.867254727961445E+07,
2460357.500000000, A.D. 2024-Feb-17 00:00:00.0000, 6.065441629864529E+09, 1.864808342611628E+09, 3.844874927417731E+07,
2460364.500000000, A.D. 2024-Feb-24 00:00:00.0000, 6.064404846829958E+09, 1.867418189146379E+09, 3.822494586716628E+07,
2460371.500000000, A.D. 2024-Mar-02 00:00:00.0000, 6.063366853956743E+09, 1.870027627020235E+09, 3.800113724819958E+07,
2460378.500000000, A.D. 2024-Mar-09 00:00:00.0000, 6.062327649535542E+09, 1.872636654701947E+09, 3.777732355669045E+07,
2460385.500000000, A.D. 2024-Mar-16 00:00:00.0000, 6.061287232462344E+09, 1.875245269455032E+09, 3.755350479409766E+07,
2460392.500000000, A.D. 2024-Mar-23 00:00:00.0000, 6.060245603407752E+09, 1.877853468188579E+09, 3.732968078767610E+07,
2460399.500000000, A.D. 2024-Mar-30 00:00:00.0000, 6.059202764194728E+09, 1.880461249425289E+09, 3.710585140907860E+07,
2460406.500000000, A.D. 2024-Apr-06 00:00:00.0000, 6.058158715640761E+09, 1.883068613019133E+09, 3.688201674911666E+07,
2460413.500000000, A.D. 2024-Apr-13 00:00:00.0000, 6.057113457415667E+09, 1.885675558459054E+09, 3.665817699130809E+07,
2460420.500000000, A.D. 2024-Apr-20 00:00:00.0000, 6.056066988962795E+09, 1.888282084435368E+09, 3.643433229030979E+07,
2460427.500000000, A.D. 2024-Apr-27 00:00:00.0000, 6.055019309966709E+09, 1.890888189107488E+09, 3.621048274852884E+07,
2460434.500000000, A.D. 2024-May-04 00:00:00.0000, 6.053970420455163E+09, 1.893493870369656E+09, 3.598662842544305E+07,
2460441.500000000, A.D. 2024-May-11 00:00:00.0000, 6.052920320773799E+09, 1.896099126013081E+09, 3.576276934953678E+07,
2460448.500000000, A.D. 2024-May-18 00:00:00.0000, 6.051869011515493E+09, 1.898703953806359E+09, 3.553890552724946E+07,
2460455.500000000, A.D. 2024-May-25 00:00:00.0000, 6.050816493429102E+09, 1.901308351487377E+09, 3.531503694626129E+07,
2460462.500000000, A.D. 2024-Jun-01 00:00:00.0000, 6.049762767367435E+09, 1.903912316609598E+09, 3.509116356315279E+07,
2460469.500000000, A.D. 2024-Jun-08 00:00:00.0000, 6.048707834520827E+09, 1.906515846220086E+09, 3.486728525120997E+07,
2460476.500000000, A.D. 2024-Jun-15 00:00:00.0000, 6.047651697335842E+09, 1.909118936914627E+09, 3.464340171654701E+07,
2460483.500000000, A.D. 2024-Jun-22 00:00:00.0000, 6.046594360113851E+09, 1.911721586445335E+09, 3.441951257104075E+07,
2460490.500000000, A.D. 2024-Jun-29 00:00:00.0000, 6.045535827167897E+09, 1.914323795060122E+09, 3.419561760814643E+07,
2460497.500000000, A.D. 2024-Jul-06 00:00:00.0000, 6.044476101182836E+09, 1.916925564103069E+09, 3.397171683726144E+07,
2460504.500000000, A.D. 2024-Jul-13 00:00:00.0000, 6.043415183727990E+09, 1.919526894699889E+09, 3.374781032879388E+07,
2460511.500000000, A.D. 2024-Jul-20 00:00:00.0000, 6.042353075936684E+09, 1.922127787677227E+09, 3.352389814603233E+07,
2460518.500000000, A.D. 2024-Jul-27 00:00:00.0000, 6.041289778696643E+09, 1.924728243756386E+09, 3.329998034558845E+07,
2460525.500000000, A.D. 2024-Aug-03 00:00:00.0000, 6.040225292624211E+09, 1.927328263646621E+09, 3.307605699066508E+07,
2460532.500000000, A.D. 2024-Aug-10 00:00:00.0000, 6.039159617988147E+09, 1.929927848033739E+09, 3.285212816144276E+07,
2460539.500000000, A.D. 2024-Aug-17 00:00:00.0000, 6.038092754630317E+09, 1.932526997486026E+09, 3.262819395982039E+07,
2460546.500000000, A.D. 2024-Aug-24 00:00:00.0000, 6.037024701911159E+09, 1.935125712255589E+09, 3.240425450390363E+07,
2460553.500000000, A.D. 2024-Aug-31 00:00:00.0000, 6.035955458795491E+09, 1.937723991914027E+09, 3.218030989635241E+07,
2460560.500000000, A.D. 2024-Sep-07 00:00:00.0000, 6.034885024444199E+09, 1.940321834949126E+09, 3.195636014312923E+07,
2460567.500000000, A.D. 2024-Sep-14 00:00:00.0000, 6.033813399397033E+09, 1.942919239318776E+09, 3.173240509596717E+07,
2460574.500000000, A.D. 2024-Sep-21 00:00:00.0000, 6.032740585317694E+09, 1.945516204374921E+09, 3.150844463814652E+07,
2460581.500000000, A.D. 2024-Sep-28 00:00:00.0000, 6.031666582813692E+09, 1.948112730930057E+09, 3.128447889433932E+07,
2460588.500000000, A.D. 2024-Oct-05 00:00:00.0000, 6.030591391000715E+09, 1.950708819468101E+09, 3.106050812793112E+07,
2460595.500000000, A.D. 2024-Oct-12 00:00:00.0000, 6.029515008450845E+09, 1.953304469479855E+09, 3.083653260233641E+07,
2460602.500000000, A.D. 2024-Oct-19 00:00:00.0000, 6.028437433773738E+09, 1.955899679652392E+09, 3.061255254471791E+07,
2460609.500000000, A.D. 2024-Oct-26 00:00:00.0000, 6.027358665798402E+09, 1.958494448111163E+09, 3.038856814957464E+07,
2460616.500000000, A.D. 2024-Nov-02 00:00:00.0000, 6.026278703613014E+09, 1.961088772566669E+09, 3.016457958647358E+07,
2460623.500000000, A.D. 2024-Nov-09 00:00:00.0000, 6.025197546559529E+09, 1.963682650386688E+09, 2.994058700478196E+07,
2460630.500000000, A.D. 2024-Nov-16 00:00:00.0000, 6.024115194209102E+09, 1.966276078594606E+09, 2.971659053310132E+07,
2460637.500000000, A.D. 2024-Nov-23 00:00:00.0000, 6.023031646365439E+09, 1.968869053744246E+09, 2.949259026507854E+07,
2460644.500000000, A.D. 2024-Nov-30 00:00:00.0000, 6.021946903304488E+09, 1.971461571628793E+09, 2.926858620909190E+07,
2460651.500000000, A.D. 2024-Dec-07 00:00:00.0000, 6.020860966670020E+09, 1.974053627244666E+09, 2.904457819781017E+07,
2460658.500000000, A.D. 2024-Dec-14 00:00:00.0000, 6.019773840336567E+09, 1.976645216234488E+09, 2.882056592093730E+07,
2460665.500000000, A.D. 2024-Dec-21 00:00:00.0000, 6.018685528921230E+09, 1.979236336568528E+09, 2.859654919255459E+07,
2460672.500000000, A.D. 2024-Dec-28 00:00:00.0000, 6.017596035916877E+09, 1.981826987497348E+09, 2.837252802982211E+07,
2460679.500000000, A.D. 2025-Jan-04 00:00:00.0000, 6.016505364044021E+09, 1.984417168151931E+09, 2.814850249920845E+07,
2460686.500000000, A.D. 2025-Jan-11 00:00:00.0000, 6.015413516000211E+09, 1.987006877451144E+09, 2.792447263317299E+07,
2460693.500000000, A.D. 2025-Jan-18 00:00:00.0000, 6.014320494690116E+09, 1.989596114397780E+09, 2.770043842657113E+07,
2460700.500000000, A.D. 2025-Jan-25 00:00:00.0000, 6.013226303179923E+09, 1.992184878288636E+09, 2.747639985192895E+07,
2460707.500000000, A.D. 2025-Feb-01 00:00:00.0000, 6.012130944565688E+09, 1.994773168808500E+09, 2.725235687400937E+07,
2460714.500000000, A.D. 2025-Feb-08 00:00:00.0000, 6.011034421814158E+09, 1.997360986027719E+09, 2.702830946016300E+07,
2460721.500000000, A.D. 2025-Feb-15 00:00:00.0000, 6.009936737604987E+09, 1.999948330283307E+09, 2.680425758238995E+07,
2460728.500000000, A.D. 2025-Feb-22 00:00:00.0000, 6.008837894273582E+09, 2.002535201879670E+09, 2.658020119694209E+07,
2460735.500000000, A.D. 2025-Mar-01 00:00:00.0000, 6.007737894189727E+09, 2.005121600674421E+09, 2.635614017615592E+07,
$$EOE